UNISAT-6                
1 40012U 14033C   26061.67804475  .00003980  00000+0  43566-3 0  9990
2 40012  97.7708 216.4004 0046470  60.5563 300.0279 14.87572265630322
DUCHIFAT-1              
1 40021U 14033M   26061.65992116  .00061132  00000+0  11308-2 0  9999
2 40021  98.0649 107.2642 0006730 103.7113 256.4886 15.48814794639186
QB50P1                  
1 40025U 14033R   26061.58353834  .00010827  00000+0  56154-3 0  9997
2 40025  98.0998  65.3871 0007539 221.3310 138.7351 15.16330216636867
LILACSAT-2              
1 40908U 15049K   26061.85620057  .00020066  00000+0  38883-3 0  9994
2 40908  97.4817  94.8443 0005596 279.9056  80.1562 15.47723029579287
FOX-1A (AO-85)          
1 40967U 15058D   26061.81491425  .00004741  00000+0  43042-3 0  9995
2 40967  64.7735 249.3858 0129272  98.6956 262.8824 14.90282183 97719
CAS-2T & KS-1Q          
1 41847U 16066G   26061.78002362  .00001730  00000+0  24953-3 0  9992
2 41847  98.3900 138.7061 0343826  92.3774 271.6820 14.44443506489438
RADFXSAT (FOX-1B)       
1 43017U 17073E   26061.77332225  .00012615  00000+0  57237-3 0  9990
2 43017  97.4875 291.2158 0155581 336.0986  23.3072 15.10689956449313
DIWATA-2B               
1 43678U 18084H   26061.85105957  .00003407  00000+0  27946-3 0  9998
2 43678  98.1035 253.6074 0011057 148.1299 212.0594 14.99918191400279
ES'HAIL 2               
1 43700U 18090A   26061.72035672  .00000127  00000+0  00000+0 0  9997
2 43700   0.0255 242.7362 0002653 132.4476  70.4158  1.00267779 26605
FOX-1CLIFF (AO-95)      
1 43770U 18099N   26061.68475105  .00013793  00000+0  56810-3 0  9994
2 43770  97.4530 122.4464 0008954  12.8802 347.2662 15.24186888396987
ITASAT                  
1 43786U 18099AE  26061.71949348  .00008385  00000+0  42018-3 0  9996
2 43786  97.4183 115.3895 0012940  11.4547 348.6979 15.17536936396754
JY1SAT (JO-97)          
1 43803U 18099AX  26061.68901688  .00019773  00000+0  68267-3 0  9994
2 43803  97.4273 124.3666 0004609 290.0792  69.9952 15.29981850397320
UWE-4                   
1 43880U 18111E   26061.72119306  .00036009  00000+0  91783-3 0  9997
2 43880  97.5860 345.7590 0008919   5.6381 354.4963 15.39415358394366
TIANYAN 01              
1 44881U 19093C   26061.81893400  .00001199  00000+0  14200-3 0  9994
2 44881  97.7630 136.6197 0015016  78.2601 282.0299 14.86321320335619
RS-44 & BREEZE-KM R/B   
1 44909U 19096E   26061.44574770  .00000016  00000+0  18230-4 0  9998
2 44909  82.5186  50.6292 0218213  34.2189 327.2756 12.79747366288693
SALSAT                  
1 46495U 20068K   26061.53547552  .00011172  00000+0  41124-3 0  9991
2 46495  97.8844  58.2509 0008864 326.6723  33.3956 15.28007427299065
XW-3 (CAS-9)            
1 50466U 21131B   26061.83925963  .00000671  00000+0  22125-3 0  9997
2 50466  98.4969 154.8342 0005130  66.3744 293.7983 14.41240078219794
