[{"OBJECT_NAME":"UNISAT-6","OBJECT_ID":"2014-033C","EPOCH":"2026-03-02T16:16:23.066400","MEAN_MOTION":14.87572265,"ECCENTRICITY":0.004647,"INCLINATION":97.7708,"RA_OF_ASC_NODE":216.4004,"ARG_OF_PERICENTER":60.5563,"MEAN_ANOMALY":300.0279,"EPHEMERIS_TYPE":0,"CLASSIFICATION_TYPE":"U","NORAD_CAT_ID":40012,"ELEMENT_SET_NO":999,"REV_AT_EPOCH":63032,"BSTAR":0.00043566,"MEAN_MOTION_DOT":3.98e-5,"MEAN_MOTION_DDOT":0},{"OBJECT_NAME":"DUCHIFAT-1","OBJECT_ID":"2014-033M","EPOCH":"2026-03-02T15:50:17.188224","MEAN_MOTION":15.48814794,"ECCENTRICITY":0.000673,"INCLINATION":98.0649,"RA_OF_ASC_NODE":107.2642,"ARG_OF_PERICENTER":103.7113,"MEAN_ANOMALY":256.4886,"EPHEMERIS_TYPE":0,"CLASSIFICATION_TYPE":"U","NORAD_CAT_ID":40021,"ELEMENT_SET_NO":999,"REV_AT_EPOCH":63918,"BSTAR":0.0011308,"MEAN_MOTION_DOT":0.00061132,"MEAN_MOTION_DDOT":0},{"OBJECT_NAME":"QB50P1","OBJECT_ID":"2014-033R","EPOCH":"2026-03-02T14:00:17.712576","MEAN_MOTION":15.16330216,"ECCENTRICITY":0.0007539,"INCLINATION":98.0998,"RA_OF_ASC_NODE":65.3871,"ARG_OF_PERICENTER":221.331,"MEAN_ANOMALY":138.7351,"EPHEMERIS_TYPE":0,"CLASSIFICATION_TYPE":"U","NORAD_CAT_ID":40025,"ELEMENT_SET_NO":999,"REV_AT_EPOCH":63686,"BSTAR":0.00056154,"MEAN_MOTION_DOT":0.00010827,"MEAN_MOTION_DDOT":0},{"OBJECT_NAME":"LILACSAT-2","OBJECT_ID":"2015-049K","EPOCH":"2026-03-02T20:32:55.729248","MEAN_MOTION":15.47723029,"ECCENTRICITY":0.0005596,"INCLINATION":97.4817,"RA_OF_ASC_NODE":94.8443,"ARG_OF_PERICENTER":279.9056,"MEAN_ANOMALY":80.1562,"EPHEMERIS_TYPE":0,"CLASSIFICATION_TYPE":"U","NORAD_CAT_ID":40908,"ELEMENT_SET_NO":999,"REV_AT_EPOCH":57928,"BSTAR":0.00038883,"MEAN_MOTION_DOT":0.00020066,"MEAN_MOTION_DDOT":0},{"OBJECT_NAME":"FOX-1A (AO-85)","OBJECT_ID":"2015-058D","EPOCH":"2026-03-02T19:33:28.591200","MEAN_MOTION":14.90282183,"ECCENTRICITY":0.0129272,"INCLINATION":64.7735,"RA_OF_ASC_NODE":249.3858,"ARG_OF_PERICENTER":98.6956,"MEAN_ANOMALY":262.8824,"EPHEMERIS_TYPE":0,"CLASSIFICATION_TYPE":"U","NORAD_CAT_ID":40967,"ELEMENT_SET_NO":999,"REV_AT_EPOCH":9771,"BSTAR":0.00043042,"MEAN_MOTION_DOT":4.741e-5,"MEAN_MOTION_DDOT":0},{"OBJECT_NAME":"CAS-2T & KS-1Q","OBJECT_ID":"2016-066G","EPOCH":"2026-03-02T18:43:14.040768","MEAN_MOTION":14.44443506,"ECCENTRICITY":0.0343826,"INCLINATION":98.39,"RA_OF_ASC_NODE":138.7061,"ARG_OF_PERICENTER":92.3774,"MEAN_ANOMALY":271.682,"EPHEMERIS_TYPE":0,"CLASSIFICATION_TYPE":"U","NORAD_CAT_ID":41847,"ELEMENT_SET_NO":999,"REV_AT_EPOCH":48943,"BSTAR":0.00024953,"MEAN_MOTION_DOT":1.73e-5,"MEAN_MOTION_DDOT":0},{"OBJECT_NAME":"RADFXSAT (FOX-1B)","OBJECT_ID":"2017-073E","EPOCH":"2026-03-02T18:33:35.042400","MEAN_MOTION":15.10689956,"ECCENTRICITY":0.0155581,"INCLINATION":97.4875,"RA_OF_ASC_NODE":291.2158,"ARG_OF_PERICENTER":336.0986,"MEAN_ANOMALY":23.3072,"EPHEMERIS_TYPE":0,"CLASSIFICATION_TYPE":"U","NORAD_CAT_ID":43017,"ELEMENT_SET_NO":999,"REV_AT_EPOCH":44931,"BSTAR":0.00057237,"MEAN_MOTION_DOT":0.00012615,"MEAN_MOTION_DDOT":0},{"OBJECT_NAME":"DIWATA-2B","OBJECT_ID":"2018-084H","EPOCH":"2026-03-02T20:25:31.546848","MEAN_MOTION":14.99918191,"ECCENTRICITY":0.0011057,"INCLINATION":98.1035,"RA_OF_ASC_NODE":253.6074,"ARG_OF_PERICENTER":148.1299,"MEAN_ANOMALY":212.0594,"EPHEMERIS_TYPE":0,"CLASSIFICATION_TYPE":"U","NORAD_CAT_ID":43678,"ELEMENT_SET_NO":999,"REV_AT_EPOCH":40027,"BSTAR":0.00027946,"MEAN_MOTION_DOT":3.407e-5,"MEAN_MOTION_DDOT":0},{"OBJECT_NAME":"ES'HAIL 2","OBJECT_ID":"2018-090A","EPOCH":"2026-03-02T17:17:18.820608","MEAN_MOTION":1.00267779,"ECCENTRICITY":0.0002653,"INCLINATION":0.0255,"RA_OF_ASC_NODE":242.7362,"ARG_OF_PERICENTER":132.4476,"MEAN_ANOMALY":70.4158,"EPHEMERIS_TYPE":0,"CLASSIFICATION_TYPE":"U","NORAD_CAT_ID":43700,"ELEMENT_SET_NO":999,"REV_AT_EPOCH":2660,"BSTAR":0,"MEAN_MOTION_DOT":1.27e-6,"MEAN_MOTION_DDOT":0},{"OBJECT_NAME":"FOX-1CLIFF (AO-95)","OBJECT_ID":"2018-099N","EPOCH":"2026-03-02T16:26:02.490720","MEAN_MOTION":15.24186888,"ECCENTRICITY":0.0008954,"INCLINATION":97.453,"RA_OF_ASC_NODE":122.4464,"ARG_OF_PERICENTER":12.8802,"MEAN_ANOMALY":347.2662,"EPHEMERIS_TYPE":0,"CLASSIFICATION_TYPE":"U","NORAD_CAT_ID":43770,"ELEMENT_SET_NO":999,"REV_AT_EPOCH":39698,"BSTAR":0.0005681,"MEAN_MOTION_DOT":0.00013793,"MEAN_MOTION_DDOT":0},{"OBJECT_NAME":"ITASAT","OBJECT_ID":"2018-099AE","EPOCH":"2026-03-02T17:16:04.236672","MEAN_MOTION":15.17536936,"ECCENTRICITY":0.001294,"INCLINATION":97.4183,"RA_OF_ASC_NODE":115.3895,"ARG_OF_PERICENTER":11.4547,"MEAN_ANOMALY":348.6979,"EPHEMERIS_TYPE":0,"CLASSIFICATION_TYPE":"U","NORAD_CAT_ID":43786,"ELEMENT_SET_NO":999,"REV_AT_EPOCH":39675,"BSTAR":0.00042018,"MEAN_MOTION_DOT":8.385e-5,"MEAN_MOTION_DDOT":0},{"OBJECT_NAME":"JY1SAT (JO-97)","OBJECT_ID":"2018-099AX","EPOCH":"2026-03-02T16:32:11.058432","MEAN_MOTION":15.2998185,"ECCENTRICITY":0.0004609,"INCLINATION":97.4273,"RA_OF_ASC_NODE":124.3666,"ARG_OF_PERICENTER":290.0792,"MEAN_ANOMALY":69.9952,"EPHEMERIS_TYPE":0,"CLASSIFICATION_TYPE":"U","NORAD_CAT_ID":43803,"ELEMENT_SET_NO":999,"REV_AT_EPOCH":39732,"BSTAR":0.00068267,"MEAN_MOTION_DOT":0.00019773,"MEAN_MOTION_DDOT":0},{"OBJECT_NAME":"UWE-4","OBJECT_ID":"2018-111E","EPOCH":"2026-03-02T17:18:31.080384","MEAN_MOTION":15.39415358,"ECCENTRICITY":0.0008919,"INCLINATION":97.586,"RA_OF_ASC_NODE":345.759,"ARG_OF_PERICENTER":5.6381,"MEAN_ANOMALY":354.4963,"EPHEMERIS_TYPE":0,"CLASSIFICATION_TYPE":"U","NORAD_CAT_ID":43880,"ELEMENT_SET_NO":999,"REV_AT_EPOCH":39436,"BSTAR":0.00091783,"MEAN_MOTION_DOT":0.00036009,"MEAN_MOTION_DDOT":0},{"OBJECT_NAME":"TIANYAN 01","OBJECT_ID":"2019-093C","EPOCH":"2026-03-02T19:39:15.897600","MEAN_MOTION":14.8632132,"ECCENTRICITY":0.0015016,"INCLINATION":97.763,"RA_OF_ASC_NODE":136.6197,"ARG_OF_PERICENTER":78.2601,"MEAN_ANOMALY":282.0299,"EPHEMERIS_TYPE":0,"CLASSIFICATION_TYPE":"U","NORAD_CAT_ID":44881,"ELEMENT_SET_NO":999,"REV_AT_EPOCH":33561,"BSTAR":0.000142,"MEAN_MOTION_DOT":1.199e-5,"MEAN_MOTION_DDOT":0},{"OBJECT_NAME":"RS-44 & BREEZE-KM R/B","OBJECT_ID":"2019-096E","EPOCH":"2026-03-02T10:41:52.601280","MEAN_MOTION":12.79747366,"ECCENTRICITY":0.02182136,"INCLINATION":82.5186,"RA_OF_ASC_NODE":50.6292,"ARG_OF_PERICENTER":34.2189,"MEAN_ANOMALY":327.2756,"EPHEMERIS_TYPE":0,"CLASSIFICATION_TYPE":"U","NORAD_CAT_ID":44909,"ELEMENT_SET_NO":999,"REV_AT_EPOCH":28869,"BSTAR":1.8229783e-5,"MEAN_MOTION_DOT":1.6e-7,"MEAN_MOTION_DDOT":0},{"OBJECT_NAME":"SALSAT","OBJECT_ID":"2020-068K","EPOCH":"2026-03-02T12:51:05.084928","MEAN_MOTION":15.28007427,"ECCENTRICITY":0.0008864,"INCLINATION":97.8844,"RA_OF_ASC_NODE":58.2509,"ARG_OF_PERICENTER":326.6723,"MEAN_ANOMALY":33.3956,"EPHEMERIS_TYPE":0,"CLASSIFICATION_TYPE":"U","NORAD_CAT_ID":46495,"ELEMENT_SET_NO":999,"REV_AT_EPOCH":29906,"BSTAR":0.00041124,"MEAN_MOTION_DOT":0.00011172,"MEAN_MOTION_DDOT":0},{"OBJECT_NAME":"XW-3 (CAS-9)","OBJECT_ID":"2021-131B","EPOCH":"2026-03-02T20:08:32.032032","MEAN_MOTION":14.41240078,"ECCENTRICITY":0.000513,"INCLINATION":98.4969,"RA_OF_ASC_NODE":154.8342,"ARG_OF_PERICENTER":66.3744,"MEAN_ANOMALY":293.7983,"EPHEMERIS_TYPE":0,"CLASSIFICATION_TYPE":"U","NORAD_CAT_ID":50466,"ELEMENT_SET_NO":999,"REV_AT_EPOCH":21979,"BSTAR":0.00022125,"MEAN_MOTION_DOT":6.71e-6,"MEAN_MOTION_DDOT":0}]
